{
  "norad_id": 66230,
  "name": "STARLINK-35736",
  "history": [
    {
      "epoch": "2026-03-28T20:36:53.656704Z",
      "apogee_km": 476.19794186022136,
      "perigee_km": 474.16716620996976,
      "latitude_deg": -1.4586615333635107e-05,
      "longitude_deg": 5.4229595723764,
      "height_km": 476.01842777608323,
      "semi_major_axis_km": 6853.319554035095,
      "eccentricity": 0.00014816,
      "inclination_deg": 53.1608,
      "raan_deg": 140.9199,
      "arg_perigee_deg": 86.499,
      "mean_anomaly_deg": 273.618,
      "mean_motion_rev_day": 15.3021089
    }
  ]
}